start=new Date('2023-03-28T00:00:00.000Z').valueOf();
sats=[{"LAUNCH_DATE":"2022-10-05","MEAN_MOTION":"15.08838556","NORAD_CAT_ID":"54015","TIME_SYSTEM":"UTC","FILE":"3872037","PERIAPSIS":"538.718","EPOCH":"2023-03-26T22:56:38.571936","REV_AT_EPOCH":"2680","MEAN_MOTION_DDOT":"0.0000000000000","CLASSIFICATION_TYPE":"U","SEMIMAJOR_AXIS":"6917.885","RA_OF_ASC_NODE":"6.5426","SITE":"AFWTR","INCLINATION":"53.2182","RCS_SIZE":"LARGE","CENTER_NAME":"EARTH","MEAN_ANOMALY":"283.6374","COUNTRY_CODE":"US","ELEMENT_SET_NO":"999","ECCENTRICITY":"0.00014920","MEAN_MOTION_DOT":"0.00002770","ARG_OF_PERICENTER":"76.4785","APOAPSIS":"540.782","PERIOD":"95.438","TLE_LINE1":"1 54015U 22125BD  23085.95600199  .00002770  00000-0  19207-3 0  9992","OBJECT_ID":"2022-125BD","OBJECT_TYPE":"PAYLOAD","BSTAR":"0.00019207000000","REF_FRAME":"TEME","DECAY_DATE":null,"TLE_LINE2":"2 54015  53.2182   6.5426 0001492  76.4785 283.6374 15.08838556 26802","EPHEMERIS_TYPE":"0","OBJECT_NAME":"STARLINK-5055","GP_ID":"228923730","MEAN_ELEMENT_THEORY":"SGP4"},{"RCS_SIZE":"LARGE","INCLINATION":"53.2156","CENTER_NAME":"EARTH","RA_OF_ASC_NODE":"142.9639","SITE":"AFETR","SEMIMAJOR_AXIS":"6917.868","ARG_OF_PERICENTER":"88.3188","MEAN_MOTION_DOT":"0.00003998","ELEMENT_SET_NO":"999","ECCENTRICITY":"0.00013190","MEAN_ANOMALY":"271.7955","COUNTRY_CODE":"US","FILE":"3872915","TIME_SYSTEM":"UTC","NORAD_CAT_ID":"54051","LAUNCH_DATE":"2022-10-20","MEAN_MOTION":"15.08843992","CLASSIFICATION_TYPE":"U","MEAN_MOTION_DDOT":"0.0000000000000","REV_AT_EPOCH":"2412","EPOCH":"2023-03-27T20:27:04.238496","PERIAPSIS":"538.821","TLE_LINE2":"2 54051  53.2156 142.9639 0001319  88.3188 271.7955 15.08843992 24127","DECAY_DATE":null,"MEAN_ELEMENT_THEORY":"SGP4","EPHEMERIS_TYPE":"0","GP_ID":"228996197","OBJECT_NAME":"STARLINK-5195","APOAPSIS":"540.646","PERIOD":"95.437","OBJECT_ID":"2022-136A","OBJECT_TYPE":"PAYLOAD","BSTAR":"0.00026910000000","REF_FRAME":"TEME","TLE_LINE1":"1 54051U 22136A   23086.85213239  .00003998  00000-0  26910-3 0  9991"},{"LAUNCH_DATE":"2022-10-20","MEAN_MOTION":"15.08819812","FILE":"3872915","NORAD_CAT_ID":"54052","TIME_SYSTEM":"UTC","REV_AT_EPOCH":"2467","EPOCH":"2023-03-27T17:38:48.614496","PERIAPSIS":"539.110","CLASSIFICATION_TYPE":"U","MEAN_MOTION_DDOT":"0.0000000000000","RA_OF_ASC_NODE":"103.0263","SITE":"AFETR","SEMIMAJOR_AXIS":"6917.942","INCLINATION":"53.2182","RCS_SIZE":"LARGE","CENTER_NAME":"EARTH","ELEMENT_SET_NO":"999","ECCENTRICITY":"0.00010070","MEAN_ANOMALY":"272.8791","COUNTRY_CODE":"US","ARG_OF_PERICENTER":"87.2317","MEAN_MOTION_DOT":"0.00001167","PERIOD":"95.439","APOAPSIS":"540.504","TLE_LINE1":"1 54052U 22136B   23086.73528489  .00001167  00000-0  91411-4 0  9990","OBJECT_TYPE":"PAYLOAD","OBJECT_ID":"2022-136B","BSTAR":"0.00009141100000","REF_FRAME":"TEME","TLE_LINE2":"2 54052  53.2182 103.0263 0001007  87.2317 272.8791 15.08819812 24678","DECAY_DATE":null,"EPHEMERIS_TYPE":"0","OBJECT_NAME":"STARLINK-5189","GP_ID":"228995948","MEAN_ELEMENT_THEORY":"SGP4"},{"FILE":"3872915","TIME_SYSTEM":"UTC","NORAD_CAT_ID":"54053","MEAN_MOTION":"15.08854462","LAUNCH_DATE":"2022-10-20","CLASSIFICATION_TYPE":"U","MEAN_MOTION_DDOT":"0.0000000000000","REV_AT_EPOCH":"2412","EPOCH":"2023-03-27T20:21:45.629856","PERIAPSIS":"539.092","CENTER_NAME":"EARTH","RCS_SIZE":"LARGE","INCLINATION":"53.2156","SITE":"AFETR","RA_OF_ASC_NODE":"142.9443","SEMIMAJOR_AXIS":"6917.836","ARG_OF_PERICENTER":"86.6250","MEAN_MOTION_DOT":"0.00012006","ECCENTRICITY":"0.00008800","ELEMENT_SET_NO":"999","COUNTRY_CODE":"US","MEAN_ANOMALY":"273.4843","APOAPSIS":"540.310","PERIOD":"95.437","REF_FRAME":"TEME","OBJECT_TYPE":"PAYLOAD","OBJECT_ID":"2022-136C","BSTAR":"0.00077083000000","TLE_LINE1":"1 54053U 22136C   23086.84844479  .00012006  00000-0  77083-3 0  9995","TLE_LINE2":"2 54053  53.2156 142.9443 0000880  86.6250 273.4843 15.08854462 24124","DECAY_DATE":null,"MEAN_ELEMENT_THEORY":"SGP4","GP_ID":"228995196","OBJECT_NAME":"STARLINK-5176","EPHEMERIS_TYPE":"0"},{"MEAN_MOTION":"15.08844311","LAUNCH_DATE":"2022-10-20","FILE":"3872915","NORAD_CAT_ID":"54054","TIME_SYSTEM":"UTC","REV_AT_EPOCH":"2412","EPOCH":"2023-03-27T20:11:08.918016","PERIAPSIS":"538.948","CLASSIFICATION_TYPE":"U","MEAN_MOTION_DDOT":"0.0000000000000","SITE":"AFETR","RA_OF_ASC_NODE":"142.8951","SEMIMAJOR_AXIS":"6917.867","CENTER_NAME":"EARTH","RCS_SIZE":"LARGE","INCLINATION":"53.2168","ECCENTRICITY":"0.00011330","ELEMENT_SET_NO":"999","COUNTRY_CODE":"US","MEAN_ANOMALY":"262.9679","ARG_OF_PERICENTER":"97.1442","MEAN_MOTION_DOT":"0.00011397","PERIOD":"95.437","APOAPSIS":"540.516","TLE_LINE1":"1 54054U 22136D   23086.84107544  .00011397  00000-0  73289-3 0  9997","REF_FRAME":"TEME","OBJECT_TYPE":"PAYLOAD","OBJECT_ID":"2022-136D","BSTAR":"0.00073289000000","TLE_LINE2":"2 54054  53.2168 142.8951 0001133  97.1442 262.9679 15.08844311 24125","DECAY_DATE":null,"OBJECT_NAME":"STARLINK-5163","GP_ID":"228995446","EPHEMERIS_TYPE":"0","MEAN_ELEMENT_THEORY":"SGP4"},{"MEAN_MOTION":"15.08850930","LAUNCH_DATE":"2022-10-20","FILE":"3872915","NORAD_CAT_ID":"54055","TIME_SYSTEM":"UTC","REV_AT_EPOCH":"2412","EPOCH":"2023-03-27T20:16:27.969024","PERIAPSIS":"538.914","CLASSIFICATION_TYPE":"U","MEAN_MOTION_DDOT":"0.0000000000000","SITE":"AFETR","RA_OF_ASC_NODE":"142.9223","SEMIMAJOR_AXIS":"6917.847","CENTER_NAME":"EARTH","RCS_SIZE":"LARGE","INCLINATION":"53.2164","ECCENTRICITY":"0.00011540","ELEMENT_SET_NO":"999","COUNTRY_CODE":"US","MEAN_ANOMALY":"269.9710","ARG_OF_PERICENTER":"90.1414","MEAN_MOTION_DOT":"0.00013557","PERIOD":"95.437","APOAPSIS":"540.510","TLE_LINE1":"1 54055U 22136E   23086.84476816  .00013557  00000-0  86796-3 0  9996","REF_FRAME":"TEME","OBJECT_TYPE":"PAYLOAD","BSTAR":"0.00086796000000","OBJECT_ID":"2022-136E","TLE_LINE2":"2 54055  53.2164 142.9223 0001154  90.1414 269.9710 15.08850930 24127","DECAY_DATE":null,"GP_ID":"228995698","OBJECT_NAME":"STARLINK-5158","EPHEMERIS_TYPE":"0","MEAN_ELEMENT_THEORY":"SGP4"},{"TIME_SYSTEM":"UTC","NORAD_CAT_ID":"54056","FILE":"3872569","LAUNCH_DATE":"2022-10-20","MEAN_MOTION":"15.08827166","MEAN_MOTION_DDOT":"0.0000000000000","CLASSIFICATION_TYPE":"U","PERIAPSIS":"538.862","EPOCH":"2023-03-27T13:45:42.780384","REV_AT_EPOCH":"2408","RCS_SIZE":"LARGE","INCLINATION":"53.2160","CENTER_NAME":"EARTH","SEMIMAJOR_AXIS":"6917.920","RA_OF_ASC_NODE":"144.0666","SITE":"AFETR","MEAN_MOTION_DOT":"0.00011712","ARG_OF_PERICENTER":"119.5764","MEAN_ANOMALY":"240.5361","COUNTRY_CODE":"US","ELEMENT_SET_NO":"999","ECCENTRICITY":"0.00013340","PERIOD":"95.438","APOAPSIS":"540.707","OBJECT_TYPE":"PAYLOAD","BSTAR":"0.00075298000000","OBJECT_ID":"2022-136F","REF_FRAME":"TEME","TLE_LINE1":"1 54056U 22136F   23086.57341181  .00011712  00000-0  75298-3 0  9999","DECAY_DATE":null,"TLE_LINE2":"2 54056  53.2160 144.0666 0001334 119.5764 240.5361 15.08827166 24089","MEAN_ELEMENT_THEORY":"SGP4","EPHEMERIS_TYPE":"0","GP_ID":"228962737","OBJECT_NAME":"STARLINK-5226"},{"ECCENTRICITY":"0.00069300","ELEMENT_SET_NO":"999","COUNTRY_CODE":"US","MEAN_ANOMALY":"8.6088","ARG_OF_PERICENTER":"60.5852","MEAN_MOTION_DOT":"0.00314350","SITE":"AFETR","RA_OF_ASC_NODE":"83.7033","SEMIMAJOR_AXIS":"6666.324","CENTER_NAME":"EARTH","RCS_SIZE":"LARGE","INCLINATION":"53.2039","REV_AT_EPOCH":"2543","EPOCH":"2023-03-28T00:00:00.999648","PERIAPSIS":"283.569","CLASSIFICATION_TYPE":"U","MEAN_MOTION_DDOT":"0.0000499330000","MEAN_MOTION":"15.95045866","LAUNCH_DATE":"2022-10-20","FILE":"3872886","TIME_SYSTEM":"UTC","NORAD_CAT_ID":"54057","GP_ID":"228969479","OBJECT_NAME":"STARLINK-5216","EPHEMERIS_TYPE":"0","MEAN_ELEMENT_THEORY":"SGP4","TLE_LINE2":"2 54057  53.2039  83.7033 0006930  60.5852   8.6088 15.95045866 25436","DECAY_DATE":null,"TLE_LINE1":"1 54057U 22136G   23087.00001157  .00314350  49933-4  79393-3 0  9991","REF_FRAME":"TEME","OBJECT_TYPE":"PAYLOAD","BSTAR":"0.00079393000000","OBJECT_ID":"2022-136G","PERIOD":"90.280","APOAPSIS":"292.808"},{"SEMIMAJOR_AXIS":"6917.798","RA_OF_ASC_NODE":"143.7225","SITE":"AFETR","RCS_SIZE":"LARGE","INCLINATION":"53.2156","CENTER_NAME":"EARTH","MEAN_ANOMALY":"284.4436","COUNTRY_CODE":"US","ELEMENT_SET_NO":"999","ECCENTRICITY":"0.00012570","MEAN_MOTION_DOT":"0.00030204","ARG_OF_PERICENTER":"75.6696","LAUNCH_DATE":"2022-10-20","MEAN_MOTION":"15.08867116","NORAD_CAT_ID":"54058","TIME_SYSTEM":"UTC","FILE":"3872915","PERIAPSIS":"538.793","EPOCH":"2023-03-27T15:09:04.654368","REV_AT_EPOCH":"2409","MEAN_MOTION_DDOT":"0.0000000000000","CLASSIFICATION_TYPE":"U","DECAY_DATE":null,"TLE_LINE2":"2 54058  53.2156 143.7225 0001257  75.6696 284.4436 15.08867116 24093","EPHEMERIS_TYPE":"0","OBJECT_NAME":"STARLINK-5167","GP_ID":"228994947","MEAN_ELEMENT_THEORY":"SGP4","APOAPSIS":"540.532","PERIOD":"95.436","TLE_LINE1":"1 54058U 22136H   23086.63130387  .00030204  00000-0  19063-2 0  9996","OBJECT_TYPE":"PAYLOAD","OBJECT_ID":"2022-136H","BSTAR":"0.00190630000000","REF_FRAME":"TEME"},{"INCLINATION":"53.2151","RCS_SIZE":"LARGE","CENTER_NAME":"EARTH","RA_OF_ASC_NODE":"143.7451","SITE":"AFETR","SEMIMAJOR_AXIS":"6917.802","ARG_OF_PERICENTER":"73.3153","MEAN_MOTION_DOT":"0.00029607","ELEMENT_SET_NO":"999","ECCENTRICITY":"0.00016470","MEAN_ANOMALY":"286.8020","COUNTRY_CODE":"US","FILE":"3872915","NORAD_CAT_ID":"54059","TIME_SYSTEM":"UTC","LAUNCH_DATE":"2022-10-20","MEAN_MOTION":"15.08865693","CLASSIFICATION_TYPE":"U","MEAN_MOTION_DDOT":"0.0000000000000","REV_AT_EPOCH":"2409","EPOCH":"2023-03-27T15:14:23.934336","PERIAPSIS":"538.527","TLE_LINE2":"2 54059  53.2151 143.7451 0001647  73.3153 286.8020 15.08865693 24099","DECAY_DATE":null,"MEAN_ELEMENT_THEORY":"SGP4","EPHEMERIS_TYPE":"0","OBJECT_NAME":"STARLINK-5173","GP_ID":"228996198","APOAPSIS":"540.806","PERIOD":"95.436","BSTAR":"0.00186920000000","OBJECT_TYPE":"PAYLOAD","OBJECT_ID":"2022-136J","REF_FRAME":"TEME","TLE_LINE1":"1 54059U 22136J   23086.63499924  .00029607  00000-0  18692-2 0  9994"}];
